[{"OBJECT_NAME":"OBJECT H","OBJECT_ID":"2023-091H","EPOCH":"2026-03-09T22:34:46.487712","MEAN_MOTION":15.26380881,"ECCENTRICITY":0.00117854,"INCLINATION":97.5166,"RA_OF_ASC_NODE":131.4381,"ARG_OF_PERICENTER":104.1062,"MEAN_ANOMALY":256.1487,"EPHEMERIS_TYPE":0,"CLASSIFICATION_TYPE":"U","NORAD_CAT_ID":57173,"ELEMENT_SET_NO":999,"REV_AT_EPOCH":14915,"BSTAR":0.00056321781,"MEAN_MOTION_DOT":0.00014617,"MEAN_MOTION_DDOT":0},{"OBJECT_NAME":"STARLINK-31234","OBJECT_ID":"2024-038W","EPOCH":"2026-03-09T05:10:35.702400","MEAN_MOTION":15.27568027,"ECCENTRICITY":7.755e-5,"INCLINATION":43.0028,"RA_OF_ASC_NODE":26.4213,"ARG_OF_PERICENTER":289.2541,"MEAN_ANOMALY":70.8227,"EPHEMERIS_TYPE":0,"CLASSIFICATION_TYPE":"U","NORAD_CAT_ID":59043,"ELEMENT_SET_NO":999,"REV_AT_EPOCH":11461,"BSTAR":1.8223639e-5,"MEAN_MOTION_DOT":2.39e-6,"MEAN_MOTION_DDOT":0}]
